{
  "type": "FeatureCollection",
  "features": [
    {
      "type": "Feature",
      "properties": {
        "norad_id": 66928,
        "name": "STARLINK-35944",
        "group": "last-30-days",
        "lat": -40.40083192294843,
        "lon": -94.50143172489639,
        "alt_km": 292.51401969788185,
        "timestamp": "2025-12-13T16:48:31.467978+00:00",
        "meta_object_name": "STARLINK-35944",
        "meta_object_id": "2025-286D",
        "meta_epoch": "2025-12-12T20:00:01.999872",
        "meta_mean_motion": 15.97215804,
        "meta_eccentricity": 6.42e-05,
        "meta_inclination": 53.1575,
        "meta_ra_of_asc_node": 50.2897,
        "meta_arg_of_pericenter": 60.721,
        "meta_mean_anomaly": 228.1913,
        "meta_ephemeris_type": 0,
        "meta_classification_type": "U",
        "meta_norad_cat_id": 66928,
        "meta_element_set_no": 999,
        "meta_rev_at_epoch": 200,
        "meta_bstar": -0.0026364753,
        "meta_mean_motion_dot": -0.01183395,
        "meta_mean_motion_ddot": 0.00043766263,
        "tle_line1": "1 66928U 25286D   25346.83335648 -.01183395  43766-3 -26365-2 0  9999",
        "tle_line2": "2 66928  53.1575  50.2897 0000642  60.7210 228.1913 15.97215804  2008"
      },
      "geometry": {
        "type": "Point",
        "coordinates": [
          -94.50143172489639,
          -40.40083192294843
        ]
      }
    },
    {
      "type": "Feature",
      "properties": {
        "norad_id": 66929,
        "name": "STARLINK-36169",
        "group": "last-30-days",
        "lat": -42.88559530902728,
        "lon": -90.02436945955107,
        "alt_km": 292.210400851337,
        "timestamp": "2025-12-13T16:48:31.467990+00:00",
        "meta_object_name": "STARLINK-36169",
        "meta_object_id": "2025-286E",
        "meta_epoch": "2025-12-12T20:00:01.999872",
        "meta_mean_motion": 15.97481446,
        "meta_eccentricity": 8.669e-05,
        "meta_inclination": 53.1574,
        "meta_ra_of_asc_node": 50.2825,
        "meta_arg_of_pericenter": 57.9423,
        "meta_mean_anomaly": 234.4179,
        "meta_ephemeris_type": 0,
        "meta_classification_type": "U",
        "meta_norad_cat_id": 66929,
        "meta_element_set_no": 999,
        "meta_rev_at_epoch": 200,
        "meta_bstar": -0.0026842539,
        "meta_mean_motion_dot": -0.01222237,
        "meta_mean_motion_ddot": 0.00046541072,
        "tle_line1": "1 66929U 25286E   25346.83335648 -.01222237  46541-3 -26843-2 0  9994",
        "tle_line2": "2 66929  53.1574  50.2825 0000866  57.9423 234.4179 15.97481446  2002"
      },
      "geometry": {
        "type": "Point",
        "coordinates": [
          -90.02436945955107,
          -42.88559530902728
        ]
      }
    },
    {
      "type": "Feature",
      "properties": {
        "norad_id": 66930,
        "name": "STARLINK-36206",
        "group": "last-30-days",
        "lat": -43.630831843525854,
        "lon": -88.53999026395134,
        "alt_km": 291.9823277887717,
        "timestamp": "2025-12-13T16:48:31.468000+00:00",
        "meta_object_name": "STARLINK-36206",
        "meta_object_id": "2025-286F",
        "meta_epoch": "2025-12-12T20:00:01.999872",
        "meta_mean_motion": 15.97555496,
        "meta_eccentricity": 8.07e-05,
        "meta_inclination": 53.1573,
        "meta_ra_of_asc_node": 50.2801,
        "meta_arg_of_pericenter": 58.729,
        "meta_mean_anomaly": 234.7121,
        "meta_ephemeris_type": 0,
        "meta_classification_type": "U",
        "meta_norad_cat_id": 66930,
        "meta_element_set_no": 999,
        "meta_rev_at_epoch": 200,
        "meta_bstar": -0.0026693727,
        "meta_mean_motion_dot": -0.01220475,
        "meta_mean_motion_ddot": 0.0004645499,
        "tle_line1": "1 66930U 25286F   25346.83335648 -.01220475  46455-3 -26694-2 0  9996",
        "tle_line2": "2 66930  53.1573  50.2801 0000807  58.7290 234.7121 15.97555496  2000"
      },
      "geometry": {
        "type": "Point",
        "coordinates": [
          -88.53999026395134,
          -43.630831843525854
        ]
      }
    },
    {
      "type": "Feature",
      "properties": {
        "norad_id": 66931,
        "name": "STARLINK-36130",
        "group": "last-30-days",
        "lat": -44.451306974319756,
        "lon": -86.81338095071239,
        "alt_km": 291.8776521208283,
        "timestamp": "2025-12-13T16:48:31.468029+00:00",
        "meta_object_name": "STARLINK-36130",
        "meta_object_id": "2025-286G",
        "meta_epoch": "2025-12-12T20:00:01.999872",
        "meta_mean_motion": 15.97664924,
        "meta_eccentricity": 8.269e-05,
        "meta_inclination": 53.1573,
        "meta_ra_of_asc_node": 50.2777,
        "meta_arg_of_pericenter": 60.6625,
        "meta_mean_anomaly": 234.0176,
        "meta_ephemeris_type": 0,
        "meta_classification_type": "U",
        "meta_norad_cat_id": 66931,
        "meta_element_set_no": 999,
        "meta_rev_at_epoch": 200,
        "meta_bstar": -0.0027302446,
        "meta_mean_motion_dot": -0.01255487,
        "meta_mean_motion_ddot": 0.0004896387,
        "tle_line1": "1 66931U 25286G   25346.83335648 -.01255487  48964-3 -27302-2 0  9992",
        "tle_line2": "2 66931  53.1573  50.2777 0000826  60.6625 234.0176 15.97664924  2008"
      },
      "geometry": {
        "type": "Point",
        "coordinates": [
          -86.81338095071239,
          -44.451306974319756
        ]
      }
    },
    {
      "type": "Feature",
      "properties": {
        "norad_id": 66932,
        "name": "STARLINK-36177",
        "group": "last-30-days",
        "lat": -45.239967246940864,
        "lon": -85.04984706862531,
        "alt_km": 291.61786323546676,
        "timestamp": "2025-12-13T16:48:31.468040+00:00",
        "meta_object_name": "STARLINK-36177",
        "meta_object_id": "2025-286H",
        "meta_epoch": "2025-12-12T20:00:01.999872",
        "meta_mean_motion": 15.97751199,
        "meta_eccentricity": 7.814e-05,
        "meta_inclination": 53.1572,
        "meta_ra_of_asc_node": 50.2751,
        "meta_arg_of_pericenter": 53.5805,
        "meta_mean_anomaly": 242.31,
        "meta_ephemeris_type": 0,
        "meta_classification_type": "U",
        "meta_norad_cat_id": 66932,
        "meta_element_set_no": 999,
        "meta_rev_at_epoch": 200,
        "meta_bstar": -0.0027136283,
        "meta_mean_motion_dot": -0.01253857,
        "meta_mean_motion_ddot": 0.00048892298,
        "tle_line1": "1 66932U 25286H   25346.83335648 -.01253857  48892-3 -27136-2 0  9997",
        "tle_line2": "2 66932  53.1572  50.2751 0000781  53.5805 242.3100 15.97751199  2001"
      },
      "geometry": {
        "type": "Point",
        "coordinates": [
          -85.04984706862531,
          -45.239967246940864
        ]
      }
    },
    {
      "type": "Feature",
      "properties": {
        "norad_id": 66933,
        "name": "STARLINK-36157",
        "group": "last-30-days",
        "lat": -45.985593099270304,
        "lon": -83.27465099082129,
        "alt_km": 291.3933233744174,
        "timestamp": "2025-12-13T16:48:31.468050+00:00",
        "meta_object_name": "STARLINK-36157",
        "meta_object_id": "2025-286J",
        "meta_epoch": "2025-12-12T20:00:01.999872",
        "meta_mean_motion": 15.97840736,
        "meta_eccentricity": 7.291e-05,
        "meta_inclination": 53.1572,
        "meta_ra_of_asc_node": 50.2726,
        "meta_arg_of_pericenter": 59.1976,
        "meta_mean_anomaly": 237.8824,
        "meta_ephemeris_type": 0,
        "meta_classification_type": "U",
        "meta_norad_cat_id": 66933,
        "meta_element_set_no": 999,
        "meta_rev_at_epoch": 200,
        "meta_bstar": -0.0027152311,
        "meta_mean_motion_dot": -0.01260772,
        "meta_mean_motion_ddot": 0.0004943051,
        "tle_line1": "1 66933U 25286J   25346.83335648 -.01260772  49431-3 -27152-2 0  9990",
        "tle_line2": "2 66933  53.1572  50.2726 0000729  59.1976 237.8824 15.97840736  2005"
      },
      "geometry": {
        "type": "Point",
        "coordinates": [
          -83.27465099082129,
          -45.985593099270304
        ]
      }
    },
    {
      "type": "Feature",
      "properties": {
        "norad_id": 66934,
        "name": "STARLINK-36153",
        "group": "last-30-days",
        "lat": -46.70015050456806,
        "lon": -81.45932543809464,
        "alt_km": 291.26761539948893,
        "timestamp": "2025-12-13T16:48:31.468059+00:00",
        "meta_object_name": "STARLINK-36153",
        "meta_object_id": "2025-286K",
        "meta_epoch": "2025-12-12T20:00:01.999872",
        "meta_mean_motion": 15.97936696,
        "meta_eccentricity": 7.623e-05,
        "meta_inclination": 53.1572,
        "meta_ra_of_asc_node": 50.2698,
        "meta_arg_of_pericenter": 59.001,
        "meta_mean_anomaly": 239.2815,
        "meta_ephemeris_type": 0,
        "meta_classification_type": "U",
        "meta_norad_cat_id": 66934,
        "meta_element_set_no": 999,
        "meta_rev_at_epoch": 200,
        "meta_bstar": -0.00274766,
        "meta_mean_motion_dot": -0.01282402,
        "meta_mean_motion_ddot": 0.00051036807,
        "tle_line1": "1 66934U 25286K   25346.83335648 -.01282402  51037-3 -27477-2 0  9990",
        "tle_line2": "2 66934  53.1572  50.2698 0000762  59.0010 239.2815 15.97936696  2006"
      },
      "geometry": {
        "type": "Point",
        "coordinates": [
          -81.45932543809464,
          -46.70015050456806
        ]
      }
    }
  ]
}